33379,COSMOS 2443 [GLONASS-M],2008,675.74,-1.0,-,65.71,Inactive,0,MEO,Kazakhstan,Russia/USSR,Unknown,Unknown,Unknown,1 33379U 08046B   25102.09615260 -.00000047  00000+0  00000+0 0  9992,2 33379  65.7093 329.5033 0012414 174.1503   4.4467  2.13098507128769,2.13098507,0.0012414,MEO
33380,COSMOS 2444 [GLONASS-M],2008,675.7,-1.0,-,65.72,Inactive,0,MEO,Kazakhstan,Russia/USSR,Unknown,Unknown,Unknown,1 33380U 08046C   25101.42501534 -.00000047  00000+0  00000+0 0  9998,2 33380  65.7182 329.5732 0019157 294.4041 244.2811  2.13112354128742,2.13112354,0.0019157,MEO
33466,COSMOS 2447 [GLONASS-M],2008,675.71,-1.0,-,64.57,Inactive,0,MEO,Kazakhstan,Russia/USSR,Unknown,Unknown,Unknown,1 33466U 08067A   25103.09155697  .00000014  00000+0  00000+0 0  9999,2 33466  64.5669  84.1647 0008253 263.7064 190.9047  2.13107774126805,2.13107774,0.0008253,MEO
33467,COSMOS 2449 [GLONASS-M],2008,675.75,-1.0,-,64.56,Inactive,0,MEO,Kazakhstan,Russia/USSR,Unknown,Unknown,Unknown,1 33467U 08067B   25103.50207275  .00000013  00000+0  00000+0 0  9995,2 33467  64.5564  84.0640 0033245 239.1915 120.4669  2.13097170126809,2.1309717,0.0033245,MEO
33468,COSMOS 2448 [GLONASS-M],2008,675.69,-1.0,-,64.56,Inactive,0,MEO,Kazakhstan,Russia/USSR,Unknown,Unknown,Unknown,1 33468U 08067C   25103.27665740  .00000013  00000+0  00000+0 0  9995,2 33468  64.5626  84.0905 0003224 264.8166  95.1329  2.13116321126878,2.13116321,0.0003224,MEO
36401,COSMOS 2461 [GLONASS-M],2010,675.72,1415.0,-,65.67,Inactive,1,MEO,Kazakhstan,Russia/USSR,Commercial/Military,Navigation (Global or Regional Positioning),Proton,1 36401U 10007B   25103.49095971 -.00000047  00000+0  00000+0 0  9997,2 36401  65.6713 329.0379 0021132   1.5761 180.3820  2.13106911117652,2.13106911,0.0021132,MEO
37137,COSMOS 2466 [GLONASS-M],2010,675.7,-1.0,-,63.89,Inactive,0,MEO,Kazakhstan,Russia/USSR,Unknown,Unknown,Unknown,1 37137U 10041A   25102.37738578  .00000001  00000+0  00000+0 0  9994,2 37137  63.8920 204.8449 0017523 176.2629 238.7593  2.13112957113668,2.13112957,0.0017523,MEO
37138,COSMOS 2465 [GLONASS-M],2010,675.74,-1.0,-,63.91,Inactive,0,MEO,Kazakhstan,Russia/USSR,Unknown,Unknown,Unknown,1 37138U 10041B   25100.45559338 -.00000025  00000+0  00000+0 0  9994,2 37138  63.9080 205.0610 0040564 179.2544 219.8445  2.13098349113642,2.13098349,0.0040564,MEO
36111,COSMOS 2456 [GLONASS-M],2009,675.73,1415.0,+,64.76,Active,1,MEO,Kazakhstan,Russia/USSR,Commercial/Military,Navigation (Global or Regional Positioning),Proton,1 36111U 09070A   25103.47879647  .00000016  00000+0  00000+0 0  9996,2 36111  64.7650  85.6586 0006432 309.1633  47.5554  2.13103766119268,2.13103766,0.0006432,MEO
36402,COSMOS 2460 [GLONASS-M],2010,675.72,1415.0,+,65.66,Active,1,MEO,Kazakhstan,Russia/USSR,Commercial/Military,Navigation (Global or Regional Positioning),Proton,1 36402U 10007C   25103.79090831 -.00000047  00000+0  00000+0 0  9991,2 36402  65.6564 328.9612 0002245  44.7409 318.7097  2.13106325117581,2.13106325,0.0002245,MEO
