[
    {
        "OBJECT_NAME": "COSMOS 2443 [GLONASS-M]",
        "OBJECT_ID": "2008-046B",
        "EPOCH": "2025-04-12T02:18:27.584640",
        "MEAN_MOTION": 2.13098507,
        "ECCENTRICITY": 0.0012414,
        "INCLINATION": 65.7093,
        "RA_OF_ASC_NODE": 329.5033,
        "ARG_OF_PERICENTER": 174.1503,
        "MEAN_ANOMALY": 4.4467,
        "EPHEMERIS_TYPE": 0,
        "CLASSIFICATION_TYPE": "U",
        "NORAD_CAT_ID": 33379,
        "ELEMENT_SET_NO": 999,
        "REV_AT_EPOCH": 12876,
        "BSTAR": 0,
        "MEAN_MOTION_DOT": -4.7e-07,
        "MEAN_MOTION_DDOT": 0
    },
    {
        "OBJECT_NAME": "COSMOS 2444 [GLONASS-M]",
        "OBJECT_ID": "2008-046C",
        "EPOCH": "2025-04-11T10:12:01.325376",
        "MEAN_MOTION": 2.13112354,
        "ECCENTRICITY": 0.0019157,
        "INCLINATION": 65.7182,
        "RA_OF_ASC_NODE": 329.5732,
        "ARG_OF_PERICENTER": 294.4041,
        "MEAN_ANOMALY": 244.2811,
        "EPHEMERIS_TYPE": 0,
        "CLASSIFICATION_TYPE": "U",
        "NORAD_CAT_ID": 33380,
        "ELEMENT_SET_NO": 999,
        "REV_AT_EPOCH": 12874,
        "BSTAR": 0,
        "MEAN_MOTION_DOT": -4.7e-07,
        "MEAN_MOTION_DDOT": 0
    },
    {
        "OBJECT_NAME": "COSMOS 2447 [GLONASS-M]",
        "OBJECT_ID": "2008-067A",
        "EPOCH": "2025-04-13T02:11:50.522208",
        "MEAN_MOTION": 2.13107774,
        "ECCENTRICITY": 0.0008253,
        "INCLINATION": 64.5669,
        "RA_OF_ASC_NODE": 84.1647,
        "ARG_OF_PERICENTER": 263.7064,
        "MEAN_ANOMALY": 190.9047,
        "EPHEMERIS_TYPE": 0,
        "CLASSIFICATION_TYPE": "U",
        "NORAD_CAT_ID": 33466,
        "ELEMENT_SET_NO": 999,
        "REV_AT_EPOCH": 12680,
        "BSTAR": 0,
        "MEAN_MOTION_DOT": 1.4e-07,
        "MEAN_MOTION_DDOT": 0
    },
    {
        "OBJECT_NAME": "COSMOS 2449 [GLONASS-M]",
        "OBJECT_ID": "2008-067B",
        "EPOCH": "2025-04-13T12:02:59.085600",
        "MEAN_MOTION": 2.1309717,
        "ECCENTRICITY": 0.0033245,
        "INCLINATION": 64.5564,
        "RA_OF_ASC_NODE": 84.064,
        "ARG_OF_PERICENTER": 239.1915,
        "MEAN_ANOMALY": 120.4669,
        "EPHEMERIS_TYPE": 0,
        "CLASSIFICATION_TYPE": "U",
        "NORAD_CAT_ID": 33467,
        "ELEMENT_SET_NO": 999,
        "REV_AT_EPOCH": 12680,
        "BSTAR": 0,
        "MEAN_MOTION_DOT": 1.3e-07,
        "MEAN_MOTION_DDOT": 0
    },
    {
        "OBJECT_NAME": "COSMOS 2448 [GLONASS-M]",
        "OBJECT_ID": "2008-067C",
        "EPOCH": "2025-04-13T06:38:23.199360",
        "MEAN_MOTION": 2.13116321,
        "ECCENTRICITY": 0.0003224,
        "INCLINATION": 64.5626,
        "RA_OF_ASC_NODE": 84.0905,
        "ARG_OF_PERICENTER": 264.8166,
        "MEAN_ANOMALY": 95.1329,
        "EPHEMERIS_TYPE": 0,
        "CLASSIFICATION_TYPE": "U",
        "NORAD_CAT_ID": 33468,
        "ELEMENT_SET_NO": 999,
        "REV_AT_EPOCH": 12687,
        "BSTAR": 0,
        "MEAN_MOTION_DOT": 1.3e-07,
        "MEAN_MOTION_DDOT": 0
    },
    {
        "OBJECT_NAME": "COSMOS 2456 [GLONASS-M]",
        "OBJECT_ID": "2009-070A",
        "EPOCH": "2025-04-13T11:29:28.015008",
        "MEAN_MOTION": 2.13103766,
        "ECCENTRICITY": 0.0006432,
        "INCLINATION": 64.765,
        "RA_OF_ASC_NODE": 85.6586,
        "ARG_OF_PERICENTER": 309.1633,
        "MEAN_ANOMALY": 47.5554,
        "EPHEMERIS_TYPE": 0,
        "CLASSIFICATION_TYPE": "U",
        "NORAD_CAT_ID": 36111,
        "ELEMENT_SET_NO": 999,
        "REV_AT_EPOCH": 11926,
        "BSTAR": 0,
        "MEAN_MOTION_DOT": 1.6e-07,
        "MEAN_MOTION_DDOT": 0
    },
    {
        "OBJECT_NAME": "COSMOS 2461 [GLONASS-M]",
        "OBJECT_ID": "2010-007B",
        "EPOCH": "2025-04-13T11:46:58.918944",
        "MEAN_MOTION": 2.13106911,
        "ECCENTRICITY": 0.0021132,
        "INCLINATION": 65.6713,
        "RA_OF_ASC_NODE": 329.0379,
        "ARG_OF_PERICENTER": 1.5761,
        "MEAN_ANOMALY": 180.382,
        "EPHEMERIS_TYPE": 0,
        "CLASSIFICATION_TYPE": "U",
        "NORAD_CAT_ID": 36401,
        "ELEMENT_SET_NO": 999,
        "REV_AT_EPOCH": 11766,
        "BSTAR": 0,
        "MEAN_MOTION_DOT": -4.7e-07,
        "MEAN_MOTION_DDOT": 0
    },
    {
        "OBJECT_NAME": "COSMOS 2460 [GLONASS-M]",
        "OBJECT_ID": "2010-007C",
        "EPOCH": "2025-04-13T18:58:54.477984",
        "MEAN_MOTION": 2.13106325,
        "ECCENTRICITY": 0.0002245,
        "INCLINATION": 65.6564,
        "RA_OF_ASC_NODE": 328.9612,
        "ARG_OF_PERICENTER": 44.7409,
        "MEAN_ANOMALY": 318.7097,
        "EPHEMERIS_TYPE": 0,
        "CLASSIFICATION_TYPE": "U",
        "NORAD_CAT_ID": 36402,
        "ELEMENT_SET_NO": 999,
        "REV_AT_EPOCH": 11758,
        "BSTAR": 0,
        "MEAN_MOTION_DOT": -4.7e-07,
        "MEAN_MOTION_DDOT": 0
    },
    {
        "OBJECT_NAME": "COSMOS 2466 [GLONASS-M]",
        "OBJECT_ID": "2010-041A",
        "EPOCH": "2025-04-12T09:03:26.131392",
        "MEAN_MOTION": 2.13112957,
        "ECCENTRICITY": 0.0017523,
        "INCLINATION": 63.892,
        "RA_OF_ASC_NODE": 204.8449,
        "ARG_OF_PERICENTER": 176.2629,
        "MEAN_ANOMALY": 238.7593,
        "EPHEMERIS_TYPE": 0,
        "CLASSIFICATION_TYPE": "U",
        "NORAD_CAT_ID": 37137,
        "ELEMENT_SET_NO": 999,
        "REV_AT_EPOCH": 11366,
        "BSTAR": 0,
        "MEAN_MOTION_DOT": 1e-08,
        "MEAN_MOTION_DDOT": 0
    },
    {
        "OBJECT_NAME": "COSMOS 2465 [GLONASS-M]",
        "OBJECT_ID": "2010-041B",
        "EPOCH": "2025-04-10T10:56:03.268032",
        "MEAN_MOTION": 2.13098349,
        "ECCENTRICITY": 0.0040564,
        "INCLINATION": 63.908,
        "RA_OF_ASC_NODE": 205.061,
        "ARG_OF_PERICENTER": 179.2544,
        "MEAN_ANOMALY": 219.8445,
        "EPHEMERIS_TYPE": 0,
        "CLASSIFICATION_TYPE": "U",
        "NORAD_CAT_ID": 37138,
        "ELEMENT_SET_NO": 999,
        "REV_AT_EPOCH": 11364,
        "BSTAR": 0,
        "MEAN_MOTION_DOT": -2.5e-07,
        "MEAN_MOTION_DDOT": 0
    }
]